{
  "type": "FeatureCollection",
  "name": "Subregiones_Antioquia",
  "features": [
    {
      "type": "Feature",
      "properties": {
        "subregion": "ORIENTE",
        "num_municipios": 23,
        "num_veredas": 1067
      },
      "geometry": {
        "type": "Polygon",
        "coordinates": [
          [
            [
              -75.56882,
              5.9946
            ],
            [
              -75.53601,
              5.72437
            ],
            [
              -75.26439,
              5.46804
            ],
            [
              -74.72795,
              5.73441
            ],
            [
              -74.7096,
              5.8045
            ],
            [
              -74.73606,
              6.22746
            ],
            [
              -74.79883,
              6.29533
            ],
            [
              -74.90269,
              6.37553
            ],
            [
              -74.9283,
              6.38925
            ],
            [
              -75.23422,
              6.44266
            ],
            [
              -75.4545,
              6.32317
            ],
            [
              -75.47475,
              6.31135
            ],
            [
              -75.56105,
              6.07958
            ],
            [
              -75.56882,
              5.9946
            ]
          ]
        ]
      }
    },
    {
      "type": "Feature",
      "properties": {
        "subregion": "SUROESTE",
        "num_municipios": 23,
        "num_veredas": 700
      },
      "geometry": {
        "type": "Polygon",
        "coordinates": [
          [
            [
              -76.47754,
              6.43922
            ],
            [
              -76.46651,
              6.23369
            ],
            [
              -75.98748,
              5.58283
            ],
            [
              -75.94411,
              5.54245
            ],
            [
              -75.8953,
              5.51224
            ],
            [
              -75.87541,
              5.50871
            ],
            [
              -75.58853,
              5.52463
            ],
            [
              -75.57998,
              5.53558
            ],
            [
              -75.49435,
              5.89546
            ],
            [
              -75.48761,
              5.92424
            ],
            [
              -75.69485,
              6.14664
            ],
            [
              -76.10718,
              6.51775
            ],
            [
              -76.25095,
              6.53389
            ],
            [
              -76.47754,
              6.43922
            ]
          ]
        ]
      }
    },
    {
      "type": "Feature",
      "properties": {
        "subregion": "OCCIDENTE",
        "num_municipios": 19,
        "num_veredas": 722
      },
      "geometry": {
        "type": "Polygon",
        "coordinates": [
          [
            [
              -76.53216,
              6.82664
            ],
            [
              -76.47831,
              6.56143
            ],
            [
              -75.83047,
              6.12666
            ],
            [
              -75.80372,
              6.12875
            ],
            [
              -75.71413,
              6.15751
            ],
            [
              -75.7024,
              6.18708
            ],
            [
              -75.66429,
              6.39578
            ],
            [
              -75.6606,
              6.48828
            ],
            [
              -75.66288,
              6.52721
            ],
            [
              -75.74548,
              6.97024
            ],
            [
              -75.76559,
              7.01419
            ],
            [
              -75.89614,
              7.20313
            ],
            [
              -76.40016,
              7.16643
            ],
            [
              -76.48596,
              7.03257
            ],
            [
              -76.53216,
              6.82664
            ]
          ]
        ]
      }
    },
    {
      "type": "Feature",
      "properties": {
        "subregion": "NORTE",
        "num_municipios": 17,
        "num_veredas": 626
      },
      "geometry": {
        "type": "Polygon",
        "coordinates": [
          [
            [
              -76.09602,
              7.28069
            ],
            [
              -75.64643,
              6.39536
            ],
            [
              -75.5506,
              6.40295
            ],
            [
              -75.39962,
              6.44885
            ],
            [
              -75.28596,
              6.51229
            ],
            [
              -75.26326,
              6.527
            ],
            [
              -75.178,
              6.59458
            ],
            [
              -75.12832,
              6.70573
            ],
            [
              -75.13826,
              6.78045
            ],
            [
              -75.30446,
              7.4294
            ],
            [
              -75.67071,
              7.52738
            ],
            [
              -76.09602,
              7.28069
            ]
          ]
        ]
      }
    },
    {
      "type": "Feature",
      "properties": {
        "subregion": "URABA",
        "num_municipios": 11,
        "num_veredas": 781
      },
      "geometry": {
        "type": "Polygon",
        "coordinates": [
          [
            [
              -77.12244,
              7.82982
            ],
            [
              -76.95131,
              6.75039
            ],
            [
              -76.8963,
              6.58879
            ],
            [
              -76.76154,
              6.28659
            ],
            [
              -76.70067,
              6.16856
            ],
            [
              -76.55269,
              6.18422
            ],
            [
              -76.45606,
              6.19451
            ],
            [
              -76.20793,
              8.39945
            ],
            [
              -76.22097,
              8.48857
            ],
            [
              -76.22927,
              8.5262
            ],
            [
              -76.25707,
              8.6077
            ],
            [
              -76.40776,
              8.85671
            ],
            [
              -76.42674,
              8.85037
            ],
            [
              -76.60682,
              8.73931
            ],
            [
              -76.92799,
              8.53698
            ],
            [
              -77.12244,
              7.82982
            ]
          ]
        ]
      }
    },
    {
      "type": "Feature",
      "properties": {
        "subregion": "BAJO CAUCA",
        "num_municipios": 6,
        "num_veredas": 310
      },
      "geometry": {
        "type": "Polygon",
        "coordinates": [
          [
            [
              -75.57932,
              7.60243
            ],
            [
              -75.56896,
              7.56886
            ],
            [
              -75.50594,
              7.44161
            ],
            [
              -75.24622,
              7.28639
            ],
            [
              -74.88739,
              7.31794
            ],
            [
              -74.85223,
              7.32357
            ],
            [
              -74.81259,
              7.3307
            ],
            [
              -74.72456,
              7.36422
            ],
            [
              -74.66508,
              7.38697
            ],
            [
              -74.64837,
              7.43123
            ],
            [
              -74.5843,
              7.71474
            ],
            [
              -74.64764,
              8.046
            ],
            [
              -74.74084,
              8.11643
            ],
            [
              -74.76906,
              8.12922
            ],
            [
              -74.84118,
              8.15877
            ],
            [
              -75.16763,
              8.05114
            ],
            [
              -75.24105,
              7.99896
            ],
            [
              -75.32511,
              7.9217
            ],
            [
              -75.41528,
              7.83644
            ],
            [
              -75.52359,
              7.70694
            ],
            [
              -75.57932,
              7.60243
            ]
          ]
        ]
      }
    },
    {
      "type": "Feature",
      "properties": {
        "subregion": "MAGDALENA MEDIO",
        "num_municipios": 6,
        "num_veredas": 178
      },
      "geometry": {
        "type": "Polygon",
        "coordinates": [
          [
            [
              -74.84415,
              6.5343
            ],
            [
              -74.807,
              5.95602
            ],
            [
              -74.80157,
              5.921
            ],
            [
              -74.76449,
              5.90515
            ],
            [
              -74.64296,
              5.86627
            ],
            [
              -73.90239,
              7.00919
            ],
            [
              -73.89271,
              7.02644
            ],
            [
              -73.89725,
              7.07363
            ],
            [
              -73.94754,
              7.22758
            ],
            [
              -73.9816,
              7.22623
            ],
            [
              -74.81044,
              6.58971
            ],
            [
              -74.83515,
              6.56715
            ],
            [
              -74.84415,
              6.5343
            ]
          ]
        ]
      }
    },
    {
      "type": "Feature",
      "properties": {
        "subregion": "NORDESTE",
        "num_municipios": 10,
        "num_veredas": 443
      },
      "geometry": {
        "type": "Polygon",
        "coordinates": [
          [
            [
              -75.29334,
              7.17517
            ],
            [
              -75.25225,
              6.51102
            ],
            [
              -75.21227,
              6.45922
            ],
            [
              -75.13537,
              6.41786
            ],
            [
              -75.11348,
              6.40823
            ],
            [
              -74.82977,
              6.36353
            ],
            [
              -74.47808,
              6.77408
            ],
            [
              -74.38149,
              6.93164
            ],
            [
              -74.40878,
              7.09499
            ],
            [
              -74.50078,
              7.3227
            ],
            [
              -74.91001,
              7.44845
            ],
            [
              -75.26951,
              7.21603
            ],
            [
              -75.29334,
              7.17517
            ]
          ]
        ]
      }
    },
    {
      "type": "Feature",
      "properties": {
        "subregion": "VALLE DE ABURRA",
        "num_municipios": 10,
        "num_veredas": 256
      },
      "geometry": {
        "type": "Polygon",
        "coordinates": [
          [
            [
              -75.71293,
              6.34334
            ],
            [
              -75.66825,
              6.07792
            ],
            [
              -75.65485,
              6.00574
            ],
            [
              -75.63091,
              5.99826
            ],
            [
              -75.5937,
              6.02376
            ],
            [
              -75.25362,
              6.44873
            ],
            [
              -75.24035,
              6.47248
            ],
            [
              -75.23799,
              6.48536
            ],
            [
              -75.24127,
              6.49912
            ],
            [
              -75.29757,
              6.50241
            ],
            [
              -75.59215,
              6.41985
            ],
            [
              -75.69016,
              6.36674
            ],
            [
              -75.71293,
              6.34334
            ]
          ]
        ]
      }
    }
  ]
}